start=new Date('2022-10-22T00:00:00.000Z').valueOf();
sats=[{"MEAN_MOTION_DDOT":"0.0000000000000","CLASSIFICATION_TYPE":"U","EPOCH":"2022-10-21T15:43:09.095232","FILE":"3628413","OBJECT_TYPE":"PAYLOAD","RA_OF_ASC_NODE":"15.9188","GP_ID":"215841456","REF_FRAME":"TEME","APOAPSIS":"548.662","DECAY_DATE":null,"RCS_SIZE":"LARGE","EPHEMERIS_TYPE":"0","MEAN_ELEMENT_THEORY":"SGP4","PERIOD":"95.592","MEAN_ANOMALY":"320.8981","TLE_LINE1":"1 47792U 21018F   22294.65496638  .00000538  00000-0  55020-4 0  9999","BSTAR":"0.00005502000000","OBJECT_NAME":"STARLINK-2334","ARG_OF_PERICENTER":"39.2159","MEAN_MOTION_DOT":"0.00000538","PERIAPSIS":"545.764","MEAN_MOTION":"15.06400196","SEMIMAJOR_AXIS":"6925.348","TIME_SYSTEM":"UTC","REV_AT_EPOCH":"9073","CENTER_NAME":"EARTH","TLE_LINE2":"2 47792  53.0555  15.9188 0002092  39.2159 320.8981 15.06400196 90730","ELEMENT_SET_NO":"999","NORAD_CAT_ID":"47792","SITE":"AFETR","ECCENTRICITY":"0.00020920","INCLINATION":"53.0555","COUNTRY_CODE":"US","LAUNCH_DATE":"2021-03-11","OBJECT_ID":"2021-018F"},{"MEAN_MOTION_DOT":"0.00000724","SEMIMAJOR_AXIS":"6925.361","PERIAPSIS":"546.167","MEAN_MOTION":"15.06395968","TIME_SYSTEM":"UTC","REV_AT_EPOCH":"9072","CENTER_NAME":"EARTH","TLE_LINE2":"2 47793  53.0548  15.8518 0001529  60.2022 299.9119 15.06395968 90724","ELEMENT_SET_NO":"999","NORAD_CAT_ID":"47793","SITE":"AFETR","ECCENTRICITY":"0.00015290","INCLINATION":"53.0548","COUNTRY_CODE":"US","LAUNCH_DATE":"2021-03-11","OBJECT_ID":"2021-018G","MEAN_MOTION_DDOT":"0.0000000000000","CLASSIFICATION_TYPE":"U","EPOCH":"2022-10-21T16:04:22.861920","FILE":"3628413","RA_OF_ASC_NODE":"15.8518","OBJECT_TYPE":"PAYLOAD","GP_ID":"215841705","REF_FRAME":"TEME","APOAPSIS":"548.285","DECAY_DATE":null,"RCS_SIZE":"LARGE","EPHEMERIS_TYPE":"0","MEAN_ELEMENT_THEORY":"SGP4","PERIOD":"95.592","TLE_LINE1":"1 47793U 21018G   22294.66970905  .00000724  00000-0  67471-4 0  9995","MEAN_ANOMALY":"299.9119","BSTAR":"0.00006747100000","ARG_OF_PERICENTER":"60.2022","OBJECT_NAME":"STARLINK-2338"},{"CENTER_NAME":"EARTH","TLE_LINE2":"2 47794  53.0550  16.1329 0001774  50.1675 309.9470 15.06404717 90721","REV_AT_EPOCH":"9072","SEMIMAJOR_AXIS":"6925.334","PERIAPSIS":"545.971","MEAN_MOTION":"15.06404717","TIME_SYSTEM":"UTC","MEAN_MOTION_DOT":"0.00000808","COUNTRY_CODE":"US","LAUNCH_DATE":"2021-03-11","OBJECT_ID":"2021-018H","INCLINATION":"53.0550","NORAD_CAT_ID":"47794","ELEMENT_SET_NO":"999","SITE":"AFETR","ECCENTRICITY":"0.00017740","REF_FRAME":"TEME","RA_OF_ASC_NODE":"16.1329","OBJECT_TYPE":"PAYLOAD","GP_ID":"215842457","FILE":"3628413","MEAN_MOTION_DDOT":"0.0000000000000","EPOCH":"2022-10-21T14:34:08.748480","CLASSIFICATION_TYPE":"U","OBJECT_NAME":"STARLINK-2341","ARG_OF_PERICENTER":"50.1675","MEAN_ANOMALY":"309.9470","TLE_LINE1":"1 47794U 21018H   22294.60704570  .00000808  00000-0  73144-4 0  9990","BSTAR":"0.00007314400000","MEAN_ELEMENT_THEORY":"SGP4","PERIOD":"95.592","APOAPSIS":"548.428","DECAY_DATE":null,"EPHEMERIS_TYPE":"0","RCS_SIZE":"LARGE"},{"INCLINATION":"53.0555","ELEMENT_SET_NO":"999","NORAD_CAT_ID":"47795","ECCENTRICITY":"0.00015590","SITE":"AFETR","OBJECT_ID":"2021-018J","COUNTRY_CODE":"US","LAUNCH_DATE":"2021-03-11","TIME_SYSTEM":"UTC","PERIAPSIS":"546.143","SEMIMAJOR_AXIS":"6925.358","MEAN_MOTION":"15.06397039","MEAN_MOTION_DOT":"0.00000795","TLE_LINE2":"2 47795  53.0555  15.8829 0001559  61.0409 299.0736 15.06397039 90783","CENTER_NAME":"EARTH","REV_AT_EPOCH":"9078","PERIOD":"95.592","MEAN_ELEMENT_THEORY":"SGP4","RCS_SIZE":"LARGE","EPHEMERIS_TYPE":"0","DECAY_DATE":null,"APOAPSIS":"548.302","OBJECT_NAME":"STARLINK-2347","ARG_OF_PERICENTER":"61.0409","BSTAR":"0.00007224300000","TLE_LINE1":"1 47795U 21018J   22294.66234231  .00000795  00000-0  72243-4 0  9993","MEAN_ANOMALY":"299.0736","FILE":"3628413","MEAN_MOTION_DDOT":"0.0000000000000","EPOCH":"2022-10-21T15:53:46.375584","CLASSIFICATION_TYPE":"U","REF_FRAME":"TEME","GP_ID":"215843207","OBJECT_TYPE":"PAYLOAD","RA_OF_ASC_NODE":"15.8829"},{"EPOCH":"2022-10-21T14:39:28.073376","CLASSIFICATION_TYPE":"U","MEAN_MOTION_DDOT":"0.0000000000000","FILE":"3628413","RA_OF_ASC_NODE":"16.1076","OBJECT_TYPE":"PAYLOAD","GP_ID":"215841956","REF_FRAME":"TEME","APOAPSIS":"548.330","DECAY_DATE":null,"RCS_SIZE":"LARGE","EPHEMERIS_TYPE":"0","MEAN_ELEMENT_THEORY":"SGP4","PERIOD":"95.593","TLE_LINE1":"1 47796U 21018K   22294.61074159  .00001410  00000-0  11358-3 0  9994","MEAN_ANOMALY":"300.2633","BSTAR":"0.00011358000000","ARG_OF_PERICENTER":"59.8513","OBJECT_NAME":"STARLINK-2373","MEAN_MOTION_DOT":"0.00001410","PERIAPSIS":"546.132","SEMIMAJOR_AXIS":"6925.366","MEAN_MOTION":"15.06394190","TIME_SYSTEM":"UTC","REV_AT_EPOCH":"9072","CENTER_NAME":"EARTH","TLE_LINE2":"2 47796  53.0563  16.1076 0001587  59.8513 300.2633 15.06394190 90723","SITE":"AFETR","ECCENTRICITY":"0.00015870","NORAD_CAT_ID":"47796","ELEMENT_SET_NO":"999","INCLINATION":"53.0563","LAUNCH_DATE":"2021-03-11","COUNTRY_CODE":"US","OBJECT_ID":"2021-018K"},{"BSTAR":"0.00008155600000","MEAN_ANOMALY":"283.2135","TLE_LINE1":"1 47797U 21018L   22294.58078094  .00000934  00000-0  81556-4 0  9991","ARG_OF_PERICENTER":"76.9008","OBJECT_NAME":"STARLINK-2377","RCS_SIZE":"LARGE","EPHEMERIS_TYPE":"0","DECAY_DATE":null,"APOAPSIS":"548.165","PERIOD":"95.592","MEAN_ELEMENT_THEORY":"SGP4","GP_ID":"215842205","RA_OF_ASC_NODE":"41.2534","OBJECT_TYPE":"PAYLOAD","REF_FRAME":"TEME","MEAN_MOTION_DDOT":"0.0000000000000","EPOCH":"2022-10-21T13:56:19.473216","CLASSIFICATION_TYPE":"U","FILE":"3628413","OBJECT_ID":"2021-018L","COUNTRY_CODE":"US","LAUNCH_DATE":"2021-03-11","NORAD_CAT_ID":"47797","ELEMENT_SET_NO":"999","SITE":"AFETR","ECCENTRICITY":"0.00013800","INCLINATION":"53.0559","REV_AT_EPOCH":"9036","TLE_LINE2":"2 47797  53.0559  41.2534 0001380  76.9008 283.2135 15.06401336 90365","CENTER_NAME":"EARTH","MEAN_MOTION_DOT":"0.00000934","TIME_SYSTEM":"UTC","SEMIMAJOR_AXIS":"6925.344","PERIAPSIS":"546.254","MEAN_MOTION":"15.06401336"},{"EPHEMERIS_TYPE":"0","RCS_SIZE":"LARGE","APOAPSIS":"548.463","DECAY_DATE":null,"PERIOD":"95.591","MEAN_ELEMENT_THEORY":"SGP4","BSTAR":"0.00017550000000","MEAN_ANOMALY":"316.7772","TLE_LINE1":"1 47798U 21018M   22294.68813519  .00002334  00000-0  17550-3 0  9990","OBJECT_NAME":"STARLINK-2379","ARG_OF_PERICENTER":"43.3362","MEAN_MOTION_DDOT":"0.0000000000000","CLASSIFICATION_TYPE":"U","EPOCH":"2022-10-21T16:30:54.880416","FILE":"3628413","GP_ID":"215842957","RA_OF_ASC_NODE":"15.7686","OBJECT_TYPE":"PAYLOAD","REF_FRAME":"TEME","ELEMENT_SET_NO":"999","NORAD_CAT_ID":"47798","SITE":"AFETR","ECCENTRICITY":"0.00018520","INCLINATION":"53.0562","OBJECT_ID":"2021-018M","COUNTRY_CODE":"US","LAUNCH_DATE":"2021-03-11","MEAN_MOTION_DOT":"0.00002334","TIME_SYSTEM":"UTC","PERIAPSIS":"545.898","MEAN_MOTION":"15.06410772","SEMIMAJOR_AXIS":"6925.316","REV_AT_EPOCH":"9073","TLE_LINE2":"2 47798  53.0562  15.7686 0001852  43.3362 316.7772 15.06410772 90733","CENTER_NAME":"EARTH"},{"APOAPSIS":"548.347","DECAY_DATE":null,"EPHEMERIS_TYPE":"0","RCS_SIZE":"LARGE","MEAN_ELEMENT_THEORY":"SGP4","PERIOD":"95.592","MEAN_ANOMALY":"304.8111","TLE_LINE1":"1 47799U 21018N   22294.75080242  .00001517  00000-0  12069-3 0  9990","BSTAR":"0.00012069000000","ARG_OF_PERICENTER":"55.3033","OBJECT_NAME":"STARLINK-2380","MEAN_MOTION_DDOT":"0.0000000000000","EPOCH":"2022-10-21T18:01:09.329088","CLASSIFICATION_TYPE":"U","FILE":"3628413","OBJECT_TYPE":"PAYLOAD","RA_OF_ASC_NODE":"15.4669","GP_ID":"215842708","REF_FRAME":"TEME","NORAD_CAT_ID":"47799","ELEMENT_SET_NO":"999","SITE":"AFETR","ECCENTRICITY":"0.00016480","INCLINATION":"53.0554","COUNTRY_CODE":"US","LAUNCH_DATE":"2021-03-11","OBJECT_ID":"2021-018N","MEAN_MOTION_DOT":"0.00001517","SEMIMAJOR_AXIS":"6925.340","PERIAPSIS":"546.064","MEAN_MOTION":"15.06402689","TIME_SYSTEM":"UTC","REV_AT_EPOCH":"9073","CENTER_NAME":"EARTH","TLE_LINE2":"2 47799  53.0554  15.4669 0001648  55.3033 304.8111 15.06402689 90737"},{"FILE":"3627579","MEAN_MOTION_DDOT":"0.0000000000000","CLASSIFICATION_TYPE":"U","EPOCH":"2022-10-21T12:10:50.248992","REF_FRAME":"TEME","OBJECT_TYPE":"PAYLOAD","RA_OF_ASC_NODE":"16.5768","GP_ID":"215775656","MEAN_ELEMENT_THEORY":"SGP4","PERIOD":"95.592","APOAPSIS":"548.524","DECAY_DATE":null,"EPHEMERIS_TYPE":"0","RCS_SIZE":"LARGE","ARG_OF_PERICENTER":"42.8566","OBJECT_NAME":"STARLINK-2381","MEAN_ANOMALY":"317.2572","TLE_LINE1":"1 47800U 21018P   22294.50752603  .00001465  00000-0  11723-3 0  9991","BSTAR":"0.00011723000000","PERIAPSIS":"545.863","SEMIMAJOR_AXIS":"6925.329","MEAN_MOTION":"15.06406498","TIME_SYSTEM":"UTC","MEAN_MOTION_DOT":"0.00001465","CENTER_NAME":"EARTH","TLE_LINE2":"2 47800  53.0561  16.5768 0001921  42.8566 317.2572 15.06406498 90704","REV_AT_EPOCH":"9070","INCLINATION":"53.0561","NORAD_CAT_ID":"47800","ELEMENT_SET_NO":"999","ECCENTRICITY":"0.00019210","SITE":"AFETR","COUNTRY_CODE":"US","LAUNCH_DATE":"2021-03-11","OBJECT_ID":"2021-018P"},{"MEAN_MOTION_DOT":"-0.00000985","TIME_SYSTEM":"UTC","SEMIMAJOR_AXIS":"6925.377","PERIAPSIS":"546.126","MEAN_MOTION":"15.06390714","REV_AT_EPOCH":"9062","TLE_LINE2":"2 47801  53.0576  22.0928 0001611  51.0014 309.1119 15.06390714 90628","CENTER_NAME":"EARTH","NORAD_CAT_ID":"47801","ELEMENT_SET_NO":"999","SITE":"AFETR","ECCENTRICITY":"0.00016110","INCLINATION":"53.0576","OBJECT_ID":"2021-018Q","COUNTRY_CODE":"US","LAUNCH_DATE":"2021-03-11","MEAN_MOTION_DDOT":"0.0000000000000","EPOCH":"2022-10-21T09:49:32.877120","CLASSIFICATION_TYPE":"U","FILE":"3627579","GP_ID":"215775906","OBJECT_TYPE":"PAYLOAD","RA_OF_ASC_NODE":"22.0928","REF_FRAME":"TEME","EPHEMERIS_TYPE":"0","RCS_SIZE":"LARGE","DECAY_DATE":null,"APOAPSIS":"548.358","PERIOD":"95.593","MEAN_ELEMENT_THEORY":"SGP4","BSTAR":"-0.00004725900000","MEAN_ANOMALY":"309.1119","TLE_LINE1":"1 47801U 21018Q   22294.40940830 -.00000985  00000-0 -47259-4 0  9994","ARG_OF_PERICENTER":"51.0014","OBJECT_NAME":"STARLINK-2382"}];
